{"fetched_at":"2026-03-28T16:33:49Z","count":6709,"tles":[{"name":"KUIPER-00008","line1":"1 63724U 25088A   26086.30538352 -.00086146  00000+0 -12347-1 0  9990","line2":"2 63724  51.9042   9.5345 0001833 115.2707 244.8444 14.76622705 50666","category":"Other"}]}